{
    "links": {
        "self": "http://www.neowsapp.com/rest/v1/neo/54016966?api_key=iIulBulltgU6a56xZRHN4H3l9WmuAYTsLGpBGhQ2"
    },
    "id": "54016966",
    "neo_reference_id": "54016966",
    "name": "(2020 JO)",
    "designation": "2020 JO",
    "nasa_jpl_url": "http://ssd.jpl.nasa.gov/sbdb.cgi?sstr=54016966",
    "absolute_magnitude_h": 25.813,
    "estimated_diameter": {
        "kilometers": {
            "estimated_diameter_min": 0.0182791071,
            "estimated_diameter_max": 0.040873326
        },
        "meters": {
            "estimated_diameter_min": 18.2791070646,
            "estimated_diameter_max": 40.8733259645
        },
        "miles": {
            "estimated_diameter_min": 0.011358107,
            "estimated_diameter_max": 0.0253974994
        },
        "feet": {
            "estimated_diameter_min": 59.9708256219,
            "estimated_diameter_max": 134.0988427573
        }
    },
    "is_potentially_hazardous_asteroid": false,
    "close_approach_data": [
        {
            "close_approach_date": "2020-04-28",
            "close_approach_date_full": "2020-Apr-28 19:25",
            "epoch_date_close_approach": 1588101900000,
            "relative_velocity": {
                "kilometers_per_second": "10.4932646399",
                "kilometers_per_hour": "37775.7527037462",
                "miles_per_hour": "23472.3836730583"
            },
            "miss_distance": {
                "astronomical": "0.0264746757",
                "lunar": "10.2986488473",
                "kilometers": "3960555.093660759",
                "miles": "2460974.8182821142"
            },
            "orbiting_body": "Earth"
        }
    ],
    "orbital_data": {
        "orbit_id": "2",
        "orbit_determination_date": "2020-05-09 05:55:59",
        "first_observation_date": "2020-05-04",
        "last_observation_date": "2020-05-06",
        "data_arc_in_days": 2,
        "observations_used": 18,
        "orbit_uncertainty": "8",
        "minimum_orbit_intersection": ".00817284",
        "jupiter_tisserand_invariant": "3.970",
        "epoch_osculation": "2458974.5",
        "eccentricity": ".46816024933965",
        "semi_major_axis": "1.761488225258925",
        "inclination": "8.910553285958571",
        "ascending_node_longitude": "212.4887748459162",
        "orbital_period": "853.9216872408859",
        "perihelion_distance": ".9368294585128494",
        "perihelion_argument": "325.4265607884741",
        "aphelion_distance": "2.586146992005001",
        "perihelion_time": "2458936.686676874282",
        "mean_anomaly": "15.94150438928763",
        "mean_motion": ".4215843272035861",
        "equinox": "J2000",
        "orbit_class": {
            "orbit_class_type": "APO",
            "orbit_class_description": "Near-Earth asteroid orbits which cross the Earth’s orbit similar to that of 1862 Apollo",
            "orbit_class_range": "a (semi-major axis) > 1.0 AU; q (perihelion) < 1.017 AU"
        }
    },
    "is_sentry_object": false
}